start=new Date('2022-01-31T00:00:00.000Z').valueOf();
sats=[{"LAUNCH_DATE":"2020-10-24","CLASSIFICATION_TYPE":"U","MEAN_MOTION_DDOT":"0.0000000000000","MEAN_MOTION":"15.06399570","PERIAPSIS":"546.339","OBJECT_TYPE":"PAYLOAD","CENTER_NAME":"EARTH","REF_FRAME":"TEME","RCS_SIZE":"LARGE","OBJECT_ID":"2020-074BK","MEAN_ANOMALY":"295.9933","TLE_LINE1":"1 46796U 20074BK  22030.85227269  .00002959  00000-0  21744-3 0  9999","PERIOD":"95.592","FILE":"3287903","OBJECT_NAME":"STARLINK-1944","INCLINATION":"53.0537","RA_OF_ASC_NODE":"200.1643","APOAPSIS":"548.091","EPHEMERIS_TYPE":"0","ARG_OF_PERICENTER":"64.1186","TIME_SYSTEM":"UTC","DECAY_DATE":null,"SITE":"AFETR","GP_ID":"194983822","MEAN_MOTION_DOT":"0.00002959","COUNTRY_CODE":"US","TLE_LINE2":"2 46796  53.0537 200.1643 0001265  64.1186 295.9933 15.06399570 70904","REV_AT_EPOCH":"7090","ELEMENT_SET_NO":"999","BSTAR":"0.00021744000000","ECCENTRICITY":"0.00012650","MEAN_ELEMENT_THEORY":"SGP4","SEMIMAJOR_AXIS":"6925.350","NORAD_CAT_ID":"46796","EPOCH":"2022-01-30T20:27:16.360416"},{"REF_FRAME":"TEME","CENTER_NAME":"EARTH","OBJECT_TYPE":"PAYLOAD","PERIAPSIS":"365.365","MEAN_MOTION":"15.67336386","OBJECT_NAME":"STARLINK-1947","FILE":"3287903","TLE_LINE1":"1 46797U 20074BL  22030.67707409  .00012580  00000-0  11946-3 0  9993","PERIOD":"91.876","MEAN_ANOMALY":"308.6525","OBJECT_ID":"2020-074BL","RCS_SIZE":"LARGE","LAUNCH_DATE":"2020-10-24","MEAN_MOTION_DDOT":"0.0000000000000","CLASSIFICATION_TYPE":"U","TLE_LINE2":"2 46797  53.0540 138.6404 0001727  51.4645 308.6525 15.67336386 71768","REV_AT_EPOCH":"7176","COUNTRY_CODE":"US","EPOCH":"2022-01-30T16:14:59.201376","SEMIMAJOR_AXIS":"6744.665","NORAD_CAT_ID":"46797","MEAN_ELEMENT_THEORY":"SGP4","ECCENTRICITY":"0.00017270","BSTAR":"0.00011946000000","ELEMENT_SET_NO":"999","DECAY_DATE":null,"TIME_SYSTEM":"UTC","APOAPSIS":"367.694","EPHEMERIS_TYPE":"0","ARG_OF_PERICENTER":"51.4645","INCLINATION":"53.0540","RA_OF_ASC_NODE":"138.6404","MEAN_MOTION_DOT":"0.00012580","GP_ID":"194982570","SITE":"AFETR"},{"OBJECT_TYPE":"PAYLOAD","CENTER_NAME":"EARTH","REF_FRAME":"TEME","MEAN_MOTION":"15.06408009","PERIAPSIS":"545.984","TLE_LINE1":"1 46798U 20074BM  22030.88405276  .00003527  00000-0  25552-3 0  9993","PERIOD":"95.592","FILE":"3287903","OBJECT_NAME":"STARLINK-1948","RCS_SIZE":"LARGE","MEAN_ANOMALY":"279.6624","OBJECT_ID":"2020-074BM","LAUNCH_DATE":"2020-10-24","MEAN_MOTION_DDOT":"0.0000000000000","CLASSIFICATION_TYPE":"U","COUNTRY_CODE":"US","TLE_LINE2":"2 46798  53.0527 225.0243 0001740  80.4561 279.6624 15.06408009 70569","REV_AT_EPOCH":"7056","EPOCH":"2022-01-30T21:13:02.158464","ELEMENT_SET_NO":"999","BSTAR":"0.00025552000000","ECCENTRICITY":"0.00017400","SEMIMAJOR_AXIS":"6925.324","NORAD_CAT_ID":"46798","MEAN_ELEMENT_THEORY":"SGP4","APOAPSIS":"548.394","EPHEMERIS_TYPE":"0","ARG_OF_PERICENTER":"80.4561","TIME_SYSTEM":"UTC","DECAY_DATE":null,"RA_OF_ASC_NODE":"225.0243","INCLINATION":"53.0527","MEAN_MOTION_DOT":"0.00003527","SITE":"AFETR","GP_ID":"194982820"},{"LAUNCH_DATE":"2020-11-25","CLASSIFICATION_TYPE":"U","MEAN_MOTION_DDOT":"0.0000000000000","MEAN_MOTION":"15.06401105","PERIAPSIS":"545.744","OBJECT_TYPE":"PAYLOAD","CENTER_NAME":"EARTH","REF_FRAME":"TEME","RCS_SIZE":"LARGE","OBJECT_ID":"2020-088A","MEAN_ANOMALY":"269.7488","TLE_LINE1":"1 47122U 20088A   22030.83846367 -.00000080  00000-0  13548-4 0  9990","PERIOD":"95.592","FILE":"3287903","OBJECT_NAME":"STARLINK-1777","INCLINATION":"53.0518","RA_OF_ASC_NODE":"190.2148","APOAPSIS":"548.676","EPHEMERIS_TYPE":"0","ARG_OF_PERICENTER":"90.3743","TIME_SYSTEM":"UTC","DECAY_DATE":null,"SITE":"AFETR","GP_ID":"194983110","MEAN_MOTION_DOT":"-0.00000080","COUNTRY_CODE":"US","TLE_LINE2":"2 47122  53.0518 190.2148 0002117  90.3743 269.7488 15.06401105 65921","REV_AT_EPOCH":"6592","ELEMENT_SET_NO":"999","BSTAR":"0.00001354800000","ECCENTRICITY":"0.00021170","NORAD_CAT_ID":"47122","SEMIMAJOR_AXIS":"6925.345","MEAN_ELEMENT_THEORY":"SGP4","EPOCH":"2022-01-30T20:07:23.261088"},{"MEAN_MOTION":"15.06407186","PERIAPSIS":"545.926","REF_FRAME":"TEME","CENTER_NAME":"EARTH","OBJECT_TYPE":"PAYLOAD","MEAN_ANOMALY":"280.7348","OBJECT_ID":"2020-088C","RCS_SIZE":"LARGE","OBJECT_NAME":"STARLINK-1785","FILE":"3287903","TLE_LINE1":"1 47124U 20088C   22030.82417127  .00001964  00000-0  15071-3 0  9992","PERIOD":"95.592","LAUNCH_DATE":"2020-11-25","CLASSIFICATION_TYPE":"U","MEAN_MOTION_DDOT":"0.0000000000000","REV_AT_EPOCH":"6585","TLE_LINE2":"2 47124  53.0538 195.2941 0001828  79.3847 280.7348 15.06407186 65856","COUNTRY_CODE":"US","SEMIMAJOR_AXIS":"6925.327","NORAD_CAT_ID":"47124","MEAN_ELEMENT_THEORY":"SGP4","BSTAR":"0.00015071000000","ELEMENT_SET_NO":"999","ECCENTRICITY":"0.00018280","EPOCH":"2022-01-30T19:46:48.397728","RA_OF_ASC_NODE":"195.2941","INCLINATION":"53.0538","DECAY_DATE":null,"TIME_SYSTEM":"UTC","EPHEMERIS_TYPE":"0","APOAPSIS":"548.457","ARG_OF_PERICENTER":"79.3847","GP_ID":"194983860","SITE":"AFETR","MEAN_MOTION_DOT":"0.00001964"},{"MEAN_MOTION_DOT":"0.00000255","GP_ID":"194982608","SITE":"AFETR","DECAY_DATE":null,"TIME_SYSTEM":"UTC","APOAPSIS":"548.787","EPHEMERIS_TYPE":"0","ARG_OF_PERICENTER":"83.9500","INCLINATION":"53.0531","RA_OF_ASC_NODE":"190.1043","EPOCH":"2022-01-30T20:44:32.222976","SEMIMAJOR_AXIS":"6925.334","NORAD_CAT_ID":"47126","MEAN_ELEMENT_THEORY":"SGP4","BSTAR":"0.00003606900000","ECCENTRICITY":"0.00022940","ELEMENT_SET_NO":"999","TLE_LINE2":"2 47126  53.0531 190.1043 0002294  83.9500 276.1750 15.06404816 65935","REV_AT_EPOCH":"6593","COUNTRY_CODE":"US","MEAN_MOTION_DDOT":"0.0000000000000","CLASSIFICATION_TYPE":"U","LAUNCH_DATE":"2020-11-25","OBJECT_NAME":"STARLINK-1812","FILE":"3287903","TLE_LINE1":"1 47126U 20088E   22030.86426184  .00000255  00000-0  36069-4 0  9994","PERIOD":"95.592","OBJECT_ID":"2020-088E","MEAN_ANOMALY":"276.1750","RCS_SIZE":"LARGE","REF_FRAME":"TEME","CENTER_NAME":"EARTH","OBJECT_TYPE":"PAYLOAD","PERIAPSIS":"545.610","MEAN_MOTION":"15.06404816"},{"NORAD_CAT_ID":"47128","SEMIMAJOR_AXIS":"6925.337","MEAN_ELEMENT_THEORY":"SGP4","BSTAR":"0.00010564000000","ECCENTRICITY":"0.00031670","ELEMENT_SET_NO":"999","EPOCH":"2022-01-30T19:43:31.153440","REV_AT_EPOCH":"6620","TLE_LINE2":"2 47128  53.0556 170.2969 0003167  76.4839 283.6503 15.06403652 66209","COUNTRY_CODE":"US","SITE":"AFETR","GP_ID":"194982858","MEAN_MOTION_DOT":"0.00001292","INCLINATION":"53.0556","RA_OF_ASC_NODE":"170.2969","TIME_SYSTEM":"UTC","APOAPSIS":"549.396","EPHEMERIS_TYPE":"0","ARG_OF_PERICENTER":"76.4839","DECAY_DATE":null,"MEAN_ANOMALY":"283.6503","OBJECT_ID":"2020-088G","RCS_SIZE":"LARGE","PERIOD":"95.592","TLE_LINE1":"1 47128U 20088G   22030.82188835  .00001292  00000-0  10564-3 0  9993","OBJECT_NAME":"STARLINK-1837","FILE":"3287903","MEAN_MOTION":"15.06403652","PERIAPSIS":"545.009","CENTER_NAME":"EARTH","OBJECT_TYPE":"PAYLOAD","REF_FRAME":"TEME","CLASSIFICATION_TYPE":"U","MEAN_MOTION_DDOT":"0.0000000000000","LAUNCH_DATE":"2020-11-25"},{"MEAN_MOTION_DOT":"0.00000177","SITE":"AFETR","GP_ID":"194983610","TIME_SYSTEM":"UTC","APOAPSIS":"548.577","ARG_OF_PERICENTER":"80.3233","EPHEMERIS_TYPE":"0","DECAY_DATE":null,"RA_OF_ASC_NODE":"180.1673","INCLINATION":"53.0543","EPOCH":"2022-01-30T20:24:37.819008","NORAD_CAT_ID":"47129","SEMIMAJOR_AXIS":"6925.341","MEAN_ELEMENT_THEORY":"SGP4","BSTAR":"0.00003076500000","ECCENTRICITY":"0.00019790","ELEMENT_SET_NO":"999","REV_AT_EPOCH":"6607","TLE_LINE2":"2 47129  53.0543 180.1673 0001979  80.3233 279.7979 15.06402416 66074","COUNTRY_CODE":"US","MEAN_MOTION_DDOT":"0.0000000000000","CLASSIFICATION_TYPE":"U","LAUNCH_DATE":"2020-11-25","TLE_LINE1":"1 47129U 20088H   22030.85043772  .00000177  00000-0  30765-4 0  9994","PERIOD":"95.592","OBJECT_NAME":"STARLINK-1838","FILE":"3287903","OBJECT_ID":"2020-088H","MEAN_ANOMALY":"279.7979","RCS_SIZE":"LARGE","CENTER_NAME":"EARTH","OBJECT_TYPE":"PAYLOAD","REF_FRAME":"TEME","MEAN_MOTION":"15.06402416","PERIAPSIS":"545.836"},{"REV_AT_EPOCH":"6578","TLE_LINE2":"2 47130  53.0539 200.2337 0001690  70.6377 289.4795 15.06403049 65787","COUNTRY_CODE":"US","SEMIMAJOR_AXIS":"6925.339","NORAD_CAT_ID":"47130","MEAN_ELEMENT_THEORY":"SGP4","BSTAR":"-0.00000442580000","ECCENTRICITY":"0.00016900","ELEMENT_SET_NO":"999","EPOCH":"2022-01-30T20:00:44.963136","RA_OF_ASC_NODE":"200.2337","INCLINATION":"53.0539","TIME_SYSTEM":"UTC","EPHEMERIS_TYPE":"0","APOAPSIS":"548.375","ARG_OF_PERICENTER":"70.6377","DECAY_DATE":null,"SITE":"AFETR","GP_ID":"194983361","MEAN_MOTION_DOT":"-0.00000348","PERIAPSIS":"546.034","MEAN_MOTION":"15.06403049","CENTER_NAME":"EARTH","OBJECT_TYPE":"PAYLOAD","REF_FRAME":"TEME","OBJECT_ID":"2020-088J","MEAN_ANOMALY":"289.4795","RCS_SIZE":"LARGE","PERIOD":"95.592","TLE_LINE1":"1 47130U 20088J   22030.83385374 -.00000348  00000-0 -44258-5 0  9996","OBJECT_NAME":"STARLINK-1839","FILE":"3287903","LAUNCH_DATE":"2020-11-25","CLASSIFICATION_TYPE":"U","MEAN_MOTION_DDOT":"0.0000000000000"},{"EPOCH":"2022-01-30T18:38:28.729824","ELEMENT_SET_NO":"999","BSTAR":"0.00004759400000","ECCENTRICITY":"0.00018320","NORAD_CAT_ID":"47133","SEMIMAJOR_AXIS":"6925.346","MEAN_ELEMENT_THEORY":"SGP4","COUNTRY_CODE":"US","REV_AT_EPOCH":"6605","TLE_LINE2":"2 47133  53.0507 180.5148 0001832  86.1241 273.9957 15.06400769 66050","MEAN_MOTION_DOT":"0.00000427","SITE":"AFETR","GP_ID":"194982109","ARG_OF_PERICENTER":"86.1241","APOAPSIS":"548.480","EPHEMERIS_TYPE":"0","TIME_SYSTEM":"UTC","DECAY_DATE":null,"RA_OF_ASC_NODE":"180.5148","INCLINATION":"53.0507","PERIOD":"95.592","TLE_LINE1":"1 47133U 20088M   22030.77672141  .00000427  00000-0  47594-4 0  9994","FILE":"3287903","OBJECT_NAME":"STARLINK-1843","RCS_SIZE":"LARGE","MEAN_ANOMALY":"273.9957","OBJECT_ID":"2020-088M","OBJECT_TYPE":"PAYLOAD","CENTER_NAME":"EARTH","REF_FRAME":"TEME","PERIAPSIS":"545.942","MEAN_MOTION":"15.06400769","MEAN_MOTION_DDOT":"0.0000000000000","CLASSIFICATION_TYPE":"U","LAUNCH_DATE":"2020-11-25"}];
